CCSDS_OMM_VERS = 2.0
CREATION_DATE  = 
ORIGINATOR     = 

OBJECT_NAME    = STARLINK-36580
OBJECT_ID      = 2026-014Q
CENTER_NAME    = EARTH
REF_FRAME      = TEME
TIME_SYSTEM    = UTC
MEAN_ELEMENT_THEORY = SGP/SGP4

EPOCH          = 2026-02-17T14:49:52.595040
MEAN_MOTION    = 15.75279431
ECCENTRICITY   = .0001755
INCLINATION    = 97.2849
RA_OF_ASC_NODE = 292.5592
ARG_OF_PERICENTER = 125.7807
MEAN_ANOMALY   = 234.3622

EPHEMERIS_TYPE = 0
CLASSIFICATION_TYPE = U
NORAD_CAT_ID   = 67546
ELEMENT_SET_NO = 999
REV_AT_EPOCH   = 541
BSTAR          = .14978E-2
MEAN_MOTION_DOT = .230302E-2
MEAN_MOTION_DDOT = 0

CCSDS_OMM_VERS = 2.0
CREATION_DATE  = 
ORIGINATOR     = 

OBJECT_NAME    = STARLINK-36584
OBJECT_ID      = 2026-014R
CENTER_NAME    = EARTH
REF_FRAME      = TEME
TIME_SYSTEM    = UTC
MEAN_ELEMENT_THEORY = SGP/SGP4

EPOCH          = 2026-02-17T22:00:01.999584
MEAN_MOTION    = 15.75236986
ECCENTRICITY   = .00016197
INCLINATION    = 97.2847
RA_OF_ASC_NODE = 292.9124
ARG_OF_PERICENTER = 98.2252
MEAN_ANOMALY   = 254.6640

EPHEMERIS_TYPE = 0
CLASSIFICATION_TYPE = U
NORAD_CAT_ID   = 67547
ELEMENT_SET_NO = 999
REV_AT_EPOCH   = 551
BSTAR          = -.79976482E-3
MEAN_MOTION_DOT = -.118032E-2
MEAN_MOTION_DDOT = 0

CCSDS_OMM_VERS = 2.0
CREATION_DATE  = 
ORIGINATOR     = 

OBJECT_NAME    = STARLINK-36586
OBJECT_ID      = 2026-014S
CENTER_NAME    = EARTH
REF_FRAME      = TEME
TIME_SYSTEM    = UTC
MEAN_ELEMENT_THEORY = SGP/SGP4

EPOCH          = 2026-02-17T18:45:55.944864
MEAN_MOTION    = 15.80857094
ECCENTRICITY   = .00011889
INCLINATION    = 97.2846
RA_OF_ASC_NODE = 292.7944
ARG_OF_PERICENTER = 86.7634
MEAN_ANOMALY   = 273.3770

EPHEMERIS_TYPE = 0
CLASSIFICATION_TYPE = U
NORAD_CAT_ID   = 67548
ELEMENT_SET_NO = 999
REV_AT_EPOCH   = 544
BSTAR          = .56125156E-3
MEAN_MOTION_DOT = .108919E-2
MEAN_MOTION_DDOT = 0

CCSDS_OMM_VERS = 2.0
CREATION_DATE  = 
ORIGINATOR     = 

OBJECT_NAME    = STARLINK-36564
OBJECT_ID      = 2026-014T
CENTER_NAME    = EARTH
REF_FRAME      = TEME
TIME_SYSTEM    = UTC
MEAN_ELEMENT_THEORY = SGP/SGP4

EPOCH          = 2026-02-17T19:36:00.676800
MEAN_MOTION    = 15.75213887
ECCENTRICITY   = .00016893
INCLINATION    = 97.2836
RA_OF_ASC_NODE = 292.7477
ARG_OF_PERICENTER = 68.2584
MEAN_ANOMALY   = 291.8861

EPHEMERIS_TYPE = 0
CLASSIFICATION_TYPE = U
NORAD_CAT_ID   = 67549
ELEMENT_SET_NO = 999
REV_AT_EPOCH   = 538
BSTAR          = .1995572E-2
MEAN_MOTION_DOT = .308864E-2
MEAN_MOTION_DDOT = 0

CCSDS_OMM_VERS = 2.0
CREATION_DATE  = 
ORIGINATOR     = 

OBJECT_NAME    = STARLINK-36563
OBJECT_ID      = 2026-014U
CENTER_NAME    = EARTH
REF_FRAME      = TEME
TIME_SYSTEM    = UTC
MEAN_ELEMENT_THEORY = SGP/SGP4

EPOCH          = 2026-02-17T14:55:28.034400
MEAN_MOTION    = 15.75299536
ECCENTRICITY   = .0001851
INCLINATION    = 97.2839
RA_OF_ASC_NODE = 292.5526
ARG_OF_PERICENTER = 124.9254
MEAN_ANOMALY   = 235.2185

EPHEMERIS_TYPE = 0
CLASSIFICATION_TYPE = U
NORAD_CAT_ID   = 67550
ELEMENT_SET_NO = 999
REV_AT_EPOCH   = 541
BSTAR          = .16888E-2
MEAN_MOTION_DOT = .260852E-2
MEAN_MOTION_DDOT = 0

CCSDS_OMM_VERS = 2.0
CREATION_DATE  = 
ORIGINATOR     = 

OBJECT_NAME    = STARLINK-36566
OBJECT_ID      = 2026-014V
CENTER_NAME    = EARTH
REF_FRAME      = TEME
TIME_SYSTEM    = UTC
MEAN_ELEMENT_THEORY = SGP/SGP4

EPOCH          = 2026-02-17T14:52:25.218912
MEAN_MOTION    = 15.75269512
ECCENTRICITY   = .00010239
INCLINATION    = 97.2847
RA_OF_ASC_NODE = 292.5561
ARG_OF_PERICENTER = 76.7566
MEAN_ANOMALY   = 283.3813

EPHEMERIS_TYPE = 0
CLASSIFICATION_TYPE = U
NORAD_CAT_ID   = 67551
ELEMENT_SET_NO = 999
REV_AT_EPOCH   = 540
BSTAR          = .15414311E-2
MEAN_MOTION_DOT = .237097E-2
MEAN_MOTION_DDOT = 0

CCSDS_OMM_VERS = 2.0
CREATION_DATE  = 
ORIGINATOR     = 

OBJECT_NAME    = STARLINK-36567
OBJECT_ID      = 2026-014W
CENTER_NAME    = EARTH
REF_FRAME      = TEME
TIME_SYSTEM    = UTC
MEAN_ELEMENT_THEORY = SGP/SGP4

EPOCH          = 2026-02-17T19:39:03.513024
MEAN_MOTION    = 15.75217938
ECCENTRICITY   = .00015292
INCLINATION    = 97.2840
RA_OF_ASC_NODE = 292.7404
ARG_OF_PERICENTER = 67.5043
MEAN_ANOMALY   = 292.6384

EPHEMERIS_TYPE = 0
CLASSIFICATION_TYPE = U
NORAD_CAT_ID   = 67552
ELEMENT_SET_NO = 999
REV_AT_EPOCH   = 543
BSTAR          = .15993916E-2
MEAN_MOTION_DOT = .245719E-2
MEAN_MOTION_DDOT = 0

CCSDS_OMM_VERS = 2.0
CREATION_DATE  = 
ORIGINATOR     = 

OBJECT_NAME    = STARLINK-36569
OBJECT_ID      = 2026-014X
CENTER_NAME    = EARTH
REF_FRAME      = TEME
TIME_SYSTEM    = UTC
MEAN_ELEMENT_THEORY = SGP/SGP4

EPOCH          = 2026-02-17T15:58:29.371872
MEAN_MOTION    = 15.75194881
ECCENTRICITY   = .0001247
INCLINATION    = 97.2853
RA_OF_ASC_NODE = 292.6439
ARG_OF_PERICENTER = 44.6870
MEAN_ANOMALY   = 315.4495

EPHEMERIS_TYPE = 0
CLASSIFICATION_TYPE = U
NORAD_CAT_ID   = 67553
ELEMENT_SET_NO = 999
REV_AT_EPOCH   = 541
BSTAR          = .88744606E-3
MEAN_MOTION_DOT = .134368E-2
MEAN_MOTION_DDOT = 0

CCSDS_OMM_VERS = 2.0
CREATION_DATE  = 
ORIGINATOR     = 

OBJECT_NAME    = STARLINK-36395
OBJECT_ID      = 2026-014Y
CENTER_NAME    = EARTH
REF_FRAME      = TEME
TIME_SYSTEM    = UTC
MEAN_ELEMENT_THEORY = SGP/SGP4

EPOCH          = 2026-02-17T14:56:29.066496
MEAN_MOTION    = 15.75303605
ECCENTRICITY   = .0001851
INCLINATION    = 97.2852
RA_OF_ASC_NODE = 292.5490
ARG_OF_PERICENTER = 125.3039
MEAN_ANOMALY   = 234.8399

EPHEMERIS_TYPE = 0
CLASSIFICATION_TYPE = U
NORAD_CAT_ID   = 67554
ELEMENT_SET_NO = 999
REV_AT_EPOCH   = 540
BSTAR          = .17959E-2
MEAN_MOTION_DOT = .278009E-2
MEAN_MOTION_DDOT = 0

CCSDS_OMM_VERS = 2.0
CREATION_DATE  = 
ORIGINATOR     = 

OBJECT_NAME    = STARLINK-36559
OBJECT_ID      = 2026-014Z
CENTER_NAME    = EARTH
REF_FRAME      = TEME
TIME_SYSTEM    = UTC
MEAN_ELEMENT_THEORY = SGP/SGP4

EPOCH          = 2026-02-17T14:58:30.989856
MEAN_MOTION    = 15.75272539
ECCENTRICITY   = .0000577
INCLINATION    = 97.2849
RA_OF_ASC_NODE = 292.5472
ARG_OF_PERICENTER = 112.9594
MEAN_ANOMALY   = 247.1732

EPHEMERIS_TYPE = 0
CLASSIFICATION_TYPE = U
NORAD_CAT_ID   = 67555
ELEMENT_SET_NO = 999
REV_AT_EPOCH   = 540
BSTAR          = .13085E-2
MEAN_MOTION_DOT = .200402E-2
MEAN_MOTION_DDOT = 0

CCSDS_OMM_VERS = 2.0
CREATION_DATE  = 
ORIGINATOR     = 

OBJECT_NAME    = MR-2
OBJECT_ID      = 2026-015A
CENTER_NAME    = EARTH
REF_FRAME      = TEME
TIME_SYSTEM    = UTC
MEAN_ELEMENT_THEORY = SGP/SGP4

EPOCH          = 2026-02-17T17:46:21.368640
MEAN_MOTION    = 13.52686537
ECCENTRICITY   = .00050602
INCLINATION    = 88.9965
RA_OF_ASC_NODE = 280.6911
ARG_OF_PERICENTER = 74.1912
MEAN_ANOMALY   = 285.9798

EPHEMERIS_TYPE = 0
CLASSIFICATION_TYPE = U
NORAD_CAT_ID   = 67556
ELEMENT_SET_NO = 999
REV_AT_EPOCH   = 356
BSTAR          = .88420946E-4
MEAN_MOTION_DOT = .71E-6
MEAN_MOTION_DDOT = 0

CCSDS_OMM_VERS = 2.0
CREATION_DATE  = 
ORIGINATOR     = 

OBJECT_NAME    = MR-1
OBJECT_ID      = 2026-015B
CENTER_NAME    = EARTH
REF_FRAME      = TEME
TIME_SYSTEM    = UTC
MEAN_ELEMENT_THEORY = SGP/SGP4

EPOCH          = 2026-02-17T17:47:02.812128
MEAN_MOTION    = 13.52661653
ECCENTRICITY   = .00051437
INCLINATION    = 88.9965
RA_OF_ASC_NODE = 280.6914
ARG_OF_PERICENTER = 72.9802
MEAN_ANOMALY   = 287.1914

EPHEMERIS_TYPE = 0
CLASSIFICATION_TYPE = U
NORAD_CAT_ID   = 67557
ELEMENT_SET_NO = 999
REV_AT_EPOCH   = 356
BSTAR          = .90677566E-4
MEAN_MOTION_DOT = .72E-6
MEAN_MOTION_DDOT = 0

